ONEWEB-0210             
1 48787U 21045W   25334.94667861 -.00000079  00000+0 -24470-3 0  9997
2 48787  87.8988 298.7303 0002493  88.1470 271.9946 13.15548649218254
ONEWEB-0214             
1 48788U 21045X   25335.18354538 -.00000263  00000+0 -73173-3 0  9998
2 48788  87.8998 298.6732 0002190  90.5870 269.5511 13.15548198218256
ONEWEB-0221             
1 48789U 21045Y   25334.96252325  .00000071  00000+0  15344-3 0  9996
2 48789  87.8984 298.7337 0002061  79.3698 280.7664 13.15547470218317
ONEWEB-0213             
1 48790U 21045Z   25335.17960473  .00000010  00000+0 -73472-5 0  9994
2 48790  87.8977 298.6987 0002141  82.3307 277.8067 13.15549866218406
ONEWEB-0212             
1 48791U 21045AA  25335.15662118 -.00000104  00000+0 -31094-3 0  9995
2 48791  87.8983 298.6923 0001805  80.2797 279.8537 13.15549960218397
ONEWEB-0227             
1 48792U 21045AB  25335.23188850  .00001135  00000+0  29799-2 0  9992
2 48792  87.8975 298.6887 0001896  79.8512 280.2832 13.15541575218351
ONEWEB-0226             
1 48793U 21045AC  25334.84526883 -.00000018  00000+0 -80899-4 0  9992
2 48793  87.8978 298.7749 0002178  85.1778 274.9601 13.15548584218273
ONEWEB-0224             
1 48794U 21045AD  25334.96094121  .00000116  00000+0  27314-3 0  9990
2 48794  87.8975 298.7869 0002165  56.6806 303.4531 13.15548100218213
